start=new Date('2022-03-12T00:00:00.000Z').valueOf();
sats=[{"ARG_OF_PERICENTER":"64.0729","TIME_SYSTEM":"UTC","COUNTRY_CODE":"US","NORAD_CAT_ID":"45767","EPOCH":"2022-03-11T21:35:20.643936","EPHEMERIS_TYPE":"0","DECAY_DATE":null,"MEAN_MOTION_DDOT":"0.0000000000000","REV_AT_EPOCH":"9659","RCS_SIZE":"LARGE","MEAN_ELEMENT_THEORY":"SGP4","ECCENTRICITY":"0.00018080","OBJECT_TYPE":"PAYLOAD","ELEMENT_SET_NO":"999","CLASSIFICATION_TYPE":"U","CENTER_NAME":"EARTH","GP_ID":"198516229","TLE_LINE2":"2 45767  53.0541 285.3887 0001808  64.0729 296.0446 15.06416609 96593","BSTAR":"0.00039122000000","PERIOD":"95.591","APOAPSIS":"548.415","OBJECT_ID":"2020-038AP","OBJECT_NAME":"STARLINK-1511","FILE":"3355378","MEAN_ANOMALY":"296.0446","INCLINATION":"53.0541","RA_OF_ASC_NODE":"285.3887","REF_FRAME":"TEME","SITE":"AFETR","MEAN_MOTION_DOT":"0.00005553","LAUNCH_DATE":"2020-06-13","SEMIMAJOR_AXIS":"6925.298","PERIAPSIS":"545.911","TLE_LINE1":"1 45767U 20038AP  22070.89954449  .00005553  00000-0  39122-3 0  9993","MEAN_MOTION":"15.06416609"},{"TLE_LINE1":"1 45768U 20038AQ  22070.88112491  .00005333  00000-0  37653-3 0  9999","MEAN_MOTION":"15.06410342","PERIAPSIS":"546.007","SEMIMAJOR_AXIS":"6925.317","MEAN_MOTION_DOT":"0.00005333","LAUNCH_DATE":"2020-06-13","SITE":"AFETR","INCLINATION":"53.0525","RA_OF_ASC_NODE":"285.4770","REF_FRAME":"TEME","OBJECT_ID":"2020-038AQ","FILE":"3355378","OBJECT_NAME":"STARLINK-1521","MEAN_ANOMALY":"294.9157","CENTER_NAME":"EARTH","GP_ID":"198516479","TLE_LINE2":"2 45768  53.0525 285.4770 0001697  65.2008 294.9157 15.06410342 96603","PERIOD":"95.591","BSTAR":"0.00037653000000","APOAPSIS":"548.357","ELEMENT_SET_NO":"999","CLASSIFICATION_TYPE":"U","ECCENTRICITY":"0.00016970","OBJECT_TYPE":"PAYLOAD","RCS_SIZE":"LARGE","MEAN_ELEMENT_THEORY":"SGP4","MEAN_MOTION_DDOT":"0.0000000000000","REV_AT_EPOCH":"9660","DECAY_DATE":null,"EPOCH":"2022-03-11T21:08:49.192224","EPHEMERIS_TYPE":"0","ARG_OF_PERICENTER":"65.2008","TIME_SYSTEM":"UTC","COUNTRY_CODE":"US","NORAD_CAT_ID":"45768"},{"NORAD_CAT_ID":"45769","TIME_SYSTEM":"UTC","ARG_OF_PERICENTER":"63.5295","COUNTRY_CODE":"US","DECAY_DATE":null,"EPHEMERIS_TYPE":"0","EPOCH":"2022-03-11T21:43:19.807968","RCS_SIZE":"LARGE","MEAN_ELEMENT_THEORY":"SGP4","REV_AT_EPOCH":"9632","MEAN_MOTION_DDOT":"0.0000000000000","CLASSIFICATION_TYPE":"U","ELEMENT_SET_NO":"999","OBJECT_TYPE":"PAYLOAD","ECCENTRICITY":"0.00019380","OBJECT_NAME":"STARLINK-1459","FILE":"3355378","MEAN_ANOMALY":"296.5892","OBJECT_ID":"2020-038AR","APOAPSIS":"548.493","CENTER_NAME":"EARTH","GP_ID":"198517730","TLE_LINE2":"2 45769  53.0544 305.3663 0001938  63.5295 296.5892 15.06420322 96327","PERIOD":"95.591","BSTAR":"0.00035526000000","SITE":"AFETR","INCLINATION":"53.0544","REF_FRAME":"TEME","RA_OF_ASC_NODE":"305.3663","SEMIMAJOR_AXIS":"6925.286","PERIAPSIS":"545.809","MEAN_MOTION_DOT":"0.00005017","LAUNCH_DATE":"2020-06-13","MEAN_MOTION":"15.06420322","TLE_LINE1":"1 45769U 20038AR  22070.90509037  .00005017  00000-0  35526-3 0  9995"},{"TIME_SYSTEM":"UTC","ARG_OF_PERICENTER":"66.8705","COUNTRY_CODE":"US","NORAD_CAT_ID":"45770","DECAY_DATE":null,"EPOCH":"2022-03-11T20:11:44.238336","EPHEMERIS_TYPE":"0","RCS_SIZE":"LARGE","MEAN_ELEMENT_THEORY":"SGP4","MEAN_MOTION_DDOT":"0.0000000000000","REV_AT_EPOCH":"9686","ELEMENT_SET_NO":"999","CLASSIFICATION_TYPE":"U","ECCENTRICITY":"0.00013950","OBJECT_TYPE":"PAYLOAD","OBJECT_ID":"2020-038AS","FILE":"3355378","OBJECT_NAME":"STARLINK-1462","MEAN_ANOMALY":"293.2431","GP_ID":"198517481","CENTER_NAME":"EARTH","BSTAR":"0.00053543000000","TLE_LINE2":"2 45770  53.0520 265.6371 0001395  66.8705 293.2431 15.06404981 96861","PERIOD":"95.592","APOAPSIS":"548.164","SITE":"AFETR","INCLINATION":"53.0520","RA_OF_ASC_NODE":"265.6371","REF_FRAME":"TEME","PERIAPSIS":"546.232","SEMIMAJOR_AXIS":"6925.333","MEAN_MOTION_DOT":"0.00007704","LAUNCH_DATE":"2020-06-13","TLE_LINE1":"1 45770U 20038AS  22070.84148424  .00007704  00000-0  53543-3 0  9993","MEAN_MOTION":"15.06404981"},{"ELEMENT_SET_NO":"999","CLASSIFICATION_TYPE":"U","ECCENTRICITY":"0.00015670","OBJECT_TYPE":"PAYLOAD","RCS_SIZE":"LARGE","MEAN_ELEMENT_THEORY":"SGP4","MEAN_MOTION_DDOT":"0.0000000000000","REV_AT_EPOCH":"9686","DECAY_DATE":null,"EPOCH":"2022-03-11T20:02:27.555360","EPHEMERIS_TYPE":"0","COUNTRY_CODE":"US","ARG_OF_PERICENTER":"69.6732","TIME_SYSTEM":"UTC","NORAD_CAT_ID":"45771","MEAN_MOTION":"15.06405967","TLE_LINE1":"1 45771U 20038AT  22070.83504115  .00000810  00000-0  73277-4 0  9994","PERIAPSIS":"546.110","SEMIMAJOR_AXIS":"6925.330","LAUNCH_DATE":"2020-06-13","MEAN_MOTION_DOT":"0.00000810","SITE":"AFETR","REF_FRAME":"TEME","RA_OF_ASC_NODE":"265.6803","INCLINATION":"53.0545","OBJECT_ID":"2020-038AT","MEAN_ANOMALY":"290.4426","OBJECT_NAME":"STARLINK-1463","FILE":"3355378","TLE_LINE2":"2 45771  53.0545 265.6803 0001567  69.6732 290.4426 15.06405967 96869","BSTAR":"0.00007327700000","PERIOD":"95.592","CENTER_NAME":"EARTH","GP_ID":"198516729","APOAPSIS":"548.280"},{"INCLINATION":"53.0519","REF_FRAME":"TEME","RA_OF_ASC_NODE":"265.7182","SITE":"AFETR","CENTER_NAME":"EARTH","GP_ID":"198516979","TLE_LINE2":"2 45772  53.0519 265.7182 0001337  75.6934 284.4203 15.06410042 96875","PERIOD":"95.592","BSTAR":"0.00034980000000","APOAPSIS":"548.109","OBJECT_ID":"2020-038AU","FILE":"3355378","OBJECT_NAME":"STARLINK-1470","MEAN_ANOMALY":"284.4203","TLE_LINE1":"1 45772U 20038AU  22070.82400935  .00004934  00000-0  34980-3 0  9997","MEAN_MOTION":"15.06410042","MEAN_MOTION_DOT":"0.00004934","LAUNCH_DATE":"2020-06-13","PERIAPSIS":"546.257","SEMIMAJOR_AXIS":"6925.318","EPOCH":"2022-03-11T19:46:34.407840","EPHEMERIS_TYPE":"0","DECAY_DATE":null,"TIME_SYSTEM":"UTC","ARG_OF_PERICENTER":"75.6934","COUNTRY_CODE":"US","NORAD_CAT_ID":"45772","ECCENTRICITY":"0.00013370","OBJECT_TYPE":"PAYLOAD","ELEMENT_SET_NO":"999","CLASSIFICATION_TYPE":"U","MEAN_MOTION_DDOT":"0.0000000000000","REV_AT_EPOCH":"9687","MEAN_ELEMENT_THEORY":"SGP4","RCS_SIZE":"LARGE"},{"RA_OF_ASC_NODE":"265.7583","REF_FRAME":"TEME","INCLINATION":"53.0546","SITE":"AFETR","TLE_LINE2":"2 45773  53.0546 265.7583 0001569  65.6992 294.4161 15.06406651 96876","PERIOD":"95.592","BSTAR":"0.00009710400000","CENTER_NAME":"EARTH","GP_ID":"198517231","APOAPSIS":"548.280","OBJECT_ID":"2020-038AV","MEAN_ANOMALY":"294.4161","FILE":"3355378","OBJECT_NAME":"STARLINK-1482","MEAN_MOTION":"15.06406651","TLE_LINE1":"1 45773U 20038AV  22070.81661499  .00001165  00000-0  97104-4 0  9992","LAUNCH_DATE":"2020-06-13","MEAN_MOTION_DOT":"0.00001165","SEMIMAJOR_AXIS":"6925.328","PERIAPSIS":"546.107","EPOCH":"2022-03-11T19:35:55.535136","EPHEMERIS_TYPE":"0","DECAY_DATE":null,"COUNTRY_CODE":"US","ARG_OF_PERICENTER":"65.6992","TIME_SYSTEM":"UTC","NORAD_CAT_ID":"45773","ECCENTRICITY":"0.00015690","OBJECT_TYPE":"PAYLOAD","ELEMENT_SET_NO":"999","CLASSIFICATION_TYPE":"U","MEAN_MOTION_DDOT":"0.0000000000000","REV_AT_EPOCH":"9687","RCS_SIZE":"LARGE","MEAN_ELEMENT_THEORY":"SGP4"},{"SITE":"AFETR","INCLINATION":"53.0553","RA_OF_ASC_NODE":"265.2884","REF_FRAME":"TEME","OBJECT_NAME":"STARLINK-1485","FILE":"3355378","MEAN_ANOMALY":"290.9386","OBJECT_ID":"2020-038AW","APOAPSIS":"548.306","CENTER_NAME":"EARTH","GP_ID":"198517981","PERIOD":"95.591","TLE_LINE2":"2 45774  53.0553 265.2884 0001645  69.1780 290.9386 15.06415340 96889","BSTAR":"0.00030015000000","MEAN_MOTION":"15.06415340","TLE_LINE1":"1 45774U 20038AW  22070.91982466  .00004194  00000-0  30015-3 0  9996","SEMIMAJOR_AXIS":"6925.302","PERIAPSIS":"546.027","MEAN_MOTION_DOT":"0.00004194","LAUNCH_DATE":"2020-06-13","DECAY_DATE":null,"EPHEMERIS_TYPE":"0","EPOCH":"2022-03-11T22:04:32.850624","NORAD_CAT_ID":"45774","ARG_OF_PERICENTER":"69.1780","TIME_SYSTEM":"UTC","COUNTRY_CODE":"US","CLASSIFICATION_TYPE":"U","ELEMENT_SET_NO":"999","OBJECT_TYPE":"PAYLOAD","ECCENTRICITY":"0.00016450","MEAN_ELEMENT_THEORY":"SGP4","RCS_SIZE":"LARGE","REV_AT_EPOCH":"9688","MEAN_MOTION_DDOT":"0.0000000000000"},{"INCLINATION":"53.0529","REF_FRAME":"TEME","RA_OF_ASC_NODE":"265.5753","SITE":"AFETR","GP_ID":"198516230","CENTER_NAME":"EARTH","BSTAR":"0.00056916000000","TLE_LINE2":"2 45775  53.0529 265.5753 0001512  76.9795 283.1363 15.06408399 96881","PERIOD":"95.592","APOAPSIS":"548.235","OBJECT_ID":"2020-038AX","OBJECT_NAME":"STARLINK-1488","FILE":"3355378","MEAN_ANOMALY":"283.1363","MEAN_MOTION":"15.06408399","TLE_LINE1":"1 45775U 20038AX  22070.85716872  .00008208  00000-0  56916-3 0  9994","MEAN_MOTION_DOT":"0.00008208","LAUNCH_DATE":"2020-06-13","PERIAPSIS":"546.141","SEMIMAJOR_AXIS":"6925.323","EPOCH":"2022-03-11T20:34:19.377408","EPHEMERIS_TYPE":"0","DECAY_DATE":null,"ARG_OF_PERICENTER":"76.9795","TIME_SYSTEM":"UTC","COUNTRY_CODE":"US","NORAD_CAT_ID":"45775","ECCENTRICITY":"0.00015120","OBJECT_TYPE":"PAYLOAD","ELEMENT_SET_NO":"999","CLASSIFICATION_TYPE":"U","MEAN_MOTION_DDOT":"0.0000000000000","REV_AT_EPOCH":"9688","RCS_SIZE":"LARGE","MEAN_ELEMENT_THEORY":"SGP4"},{"MEAN_MOTION":"15.06404568","TLE_LINE1":"1 45776U 20038AY  22070.79820046  .00002623  00000-0  19488-3 0  9995","PERIAPSIS":"546.013","SEMIMAJOR_AXIS":"6925.335","MEAN_MOTION_DOT":"0.00002623","LAUNCH_DATE":"2020-06-13","SITE":"AFETR","INCLINATION":"53.0531","REF_FRAME":"TEME","RA_OF_ASC_NODE":"265.8271","OBJECT_NAME":"STARLINK-1489","FILE":"3355378","MEAN_ANOMALY":"291.7326","OBJECT_ID":"2020-038AY","APOAPSIS":"548.387","CENTER_NAME":"EARTH","GP_ID":"198516480","PERIOD":"95.592","TLE_LINE2":"2 45776  53.0531 265.8271 0001714  68.3845 291.7326 15.06404568 96875","BSTAR":"0.00019488000000","CLASSIFICATION_TYPE":"U","ELEMENT_SET_NO":"999","OBJECT_TYPE":"PAYLOAD","ECCENTRICITY":"0.00017140","MEAN_ELEMENT_THEORY":"SGP4","RCS_SIZE":"LARGE","REV_AT_EPOCH":"9687","MEAN_MOTION_DDOT":"0.0000000000000","DECAY_DATE":null,"EPHEMERIS_TYPE":"0","EPOCH":"2022-03-11T19:09:24.519744","NORAD_CAT_ID":"45776","TIME_SYSTEM":"UTC","ARG_OF_PERICENTER":"68.3845","COUNTRY_CODE":"US"}];
